GLOBALSTAR M063         
1 26081U 00008A   24215.47988083 -.00000042  00000+0  58852-3 0  9993
2 26081  51.9918 230.9253 0004433  62.4753  89.4943 11.86159190119758
GLOBALSTAR M060         
1 26083U 00008C   24215.50669753 -.00000121  00000+0 -29463-3 0  9994
2 26083  51.9989 227.8322 0003497 198.9584 327.8760 12.17638231113546
GLOBALSTAR M069         
1 31573U 07020C   24215.57300390 -.00000059  00000+0  24718-3 0  9998
2 31573  51.9955  71.7687 0001020  67.7144 313.2064 12.62244880794313
GLOBALSTAR M072         
1 31574U 07020D   24215.60230534 -.00000089  00000+0  81654-4 0  9991
2 31574  52.0069 167.6614 0000654 350.1721 181.5473 12.62260970792584
GLOBALSTAR M071         
1 31576U 07020F   24215.39519888 -.00000065  00000+0  21545-3 0  9997
2 31576  52.0069  77.5139 0001287  85.9523  85.1580 12.62271421455478
